{"type": "FeatureCollection", "features": [ {"type": "Feature", "properties": {"norad_id": 38779, "name": "GSAT-10 (GAGAN/PRN 128)", "group": "gnss", "lat": -0.03166134487939624, "lon": -100.68104015767075, "alt_km": 35793.33932006668, "timestamp": "2025-12-21T05:44:51.829351+00:00", "meta": {"OBJECT_NAME": "GSAT-10 (GAGAN/PRN 128)", "OBJECT_ID": "2012-051B", "EPOCH": "2025-12-20T19:46:50.003904", "MEAN_MOTION": 1.00272156, "ECCENTRICITY": 0.00024039, "INCLINATION": 0.0723, "RA_OF_ASC_NODE": 264.4677, "ARG_OF_PERICENTER": 218.8396, "MEAN_ANOMALY": 346.0839, "EPHEMERIS_TYPE": 0, "CLASSIFICATION_TYPE": "U", "NORAD_CAT_ID": 38779, "ELEMENT_SET_NO": 999, "REV_AT_EPOCH": 4831, "BSTAR": 0, "MEAN_MOTION_DOT": -1.42e-06, "MEAN_MOTION_DDOT": 0}, "tle": {"line1": "1 38779U 12051B   25354.82418986 -.00000142  00000+0  00000+0 0  9994", "line2": "2 38779   0.0723 264.4677 0002403 218.8396 346.0839  1.00272156 48313"}}, "geometry": {"type": "Point", "coordinates": [-100.68104015767075, -0.03166134487939624]}}, {"type": "Feature", "properties": {"norad_id": 38833, "name": "GPS BIIF-3  (PRN 24)", "group": "gnss", "lat": -45.71890568408943, "lon": 101.61302131734743, "alt_km": 20463.332740952537, "timestamp": "2025-12-21T05:44:51.829365+00:00", "meta": {"OBJECT_NAME": "GPS BIIF-3  (PRN 24)", "OBJECT_ID": "2012-053A", "EPOCH": "2025-12-19T19:56:51.793728", "MEAN_MOTION": 2.0056508, "ECCENTRICITY": 0.01760073, "INCLINATION": 53.5591, "RA_OF_ASC_NODE": 150.9483, "ARG_OF_PERICENTER": 64.0988, "MEAN_ANOMALY": 297.6852, "EPHEMERIS_TYPE": 0, "CLASSIFICATION_TYPE": "U", "NORAD_CAT_ID": 38833, "ELEMENT_SET_NO": 999, "REV_AT_EPOCH": 9584, "BSTAR": 0, "MEAN_MOTION_DOT": 5.6e-07, "MEAN_MOTION_DDOT": 0}, "tle": {"line1": "1 38833U 12053A   25353.83115502  .00000056  00000+0  00000+0 0  9998", "line2": "2 38833  53.5591 150.9483 0176007  64.0988 297.6852  2.00565080 95842"}}, "geometry": {"type": "Point", "coordinates": [101.61302131734743, -45.71890568408943]}}, {"type": "Feature", "properties": {"norad_id": 38857, "name": "GSAT0103 (GALILEO-FM3)", "group": "gnss", "lat": 41.25146607027208, "lon": 143.14506901164768, "alt_km": 23224.090929064714, "timestamp": "2025-12-21T05:44:51.829379+00:00", "meta": {"OBJECT_NAME": "GSAT0103 (GALILEO-FM3)", "OBJECT_ID": "2012-055A", "EPOCH": "2025-12-18T05:17:11.481792", "MEAN_MOTION": 1.70473412, "ECCENTRICITY": 0.00028558, "INCLINATION": 55.6954, "RA_OF_ASC_NODE": 106.5161, "ARG_OF_PERICENTER": 269.0808, "MEAN_ANOMALY": 90.8455, "EPHEMERIS_TYPE": 0, "CLASSIFICATION_TYPE": "U", "NORAD_CAT_ID": 38857, "ELEMENT_SET_NO": 999, "REV_AT_EPOCH": 8192, "BSTAR": 0, "MEAN_MOTION_DOT": -7e-08, "MEAN_MOTION_DDOT": 0}, "tle": {"line1": "1 38857U 12055A   25352.22027178 -.00000007  00000+0  00000+0 0  9996", "line2": "2 38857  55.6954 106.5161 0002855 269.0808  90.8455  1.70473412 81920"}}, "geometry": {"type": "Point", "coordinates": [143.14506901164768, 41.25146607027208]}}, {"type": "Feature", "properties": {"norad_id": 38953, "name": "BEIDOU-2 G6 (C02)", "group": "gnss", "lat": -0.34996574761271465, "lon": -99.88805182794408, "alt_km": 35797.47955862354, "timestamp": "2025-12-21T05:44:51.829391+00:00", "meta": {"OBJECT_NAME": "BEIDOU-2 G6 (C02)", "OBJECT_ID": "2012-059A", "EPOCH": "2025-12-20T20:28:40.379232", "MEAN_MOTION": 1.00268873, "ECCENTRICITY": 0.0008254, "INCLINATION": 3.9687, "RA_OF_ASC_NODE": 75.4273, "ARG_OF_PERICENTER": 292.3213, "MEAN_ANOMALY": 113.0429, "EPHEMERIS_TYPE": 0, "CLASSIFICATION_TYPE": "U", "NORAD_CAT_ID": 38953, "ELEMENT_SET_NO": 999, "REV_AT_EPOCH": 4812, "BSTAR": 0, "MEAN_MOTION_DOT": -1.54e-06, "MEAN_MOTION_DDOT": 0}, "tle": {"line1": "1 38953U 12059A   25354.85324513 -.00000154  00000+0  00000+0 0  9994", "line2": "2 38953   3.9687  75.4273 0008254 292.3213 113.0429  1.00268873 48122"}}, "geometry": {"type": "Point", "coordinates": [-99.88805182794408, -0.34996574761271465]}}, {"type": "Feature", "properties": {"norad_id": 38977, "name": "LUCH 5B (SDCM/PRN 125)", "group": "gnss", "lat": 9.600645067913351, "lon": 160.14382472436205, "alt_km": 35783.373926356624, "timestamp": "2025-12-21T05:44:51.829403+00:00", "meta": {"OBJECT_NAME": "LUCH 5B (SDCM/PRN 125)", "OBJECT_ID": "2012-061A", "EPOCH": "2025-12-20T21:42:48.278880", "MEAN_MOTION": 1.00272355, "ECCENTRICITY": 0.00066211, "INCLINATION": 10.0979, "RA_OF_ASC_NODE": 51.6276, "ARG_OF_PERICENTER": 195.3293, "MEAN_ANOMALY": 152.1489, "EPHEMERIS_TYPE": 0, "CLASSIFICATION_TYPE": "U", "NORAD_CAT_ID": 38977, "ELEMENT_SET_NO": 999, "REV_AT_EPOCH": 4781, "BSTAR": 0, "MEAN_MOTION_DOT": -1.21e-06, "MEAN_MOTION_DDOT": 0}, "tle": {"line1": "1 38977U 12061A   25354.90472545 -.00000121  00000+0  00000+0 0  9992", "line2": "2 38977  10.0979  51.6276 0006621 195.3293 152.1489  1.00272355 47811"}}, "geometry": {"type": "Point", "coordinates": [160.14382472436205, 9.600645067913351]}}, {"type": "Feature", "properties": {"norad_id": 39155, "name": "COSMOS 2485 (747)", "group": "gnss", "lat": 38.69331652485081, "lon": -121.97811869997582, "alt_km": 19129.211407947823, "timestamp": "2025-12-21T05:44:51.829414+00:00", "meta": {"OBJECT_NAME": "COSMOS 2485 (747)", "OBJECT_ID": "2013-019A", "EPOCH": "2025-12-20T02:56:15.241632", "MEAN_MOTION": 2.1310322, "ECCENTRICITY": 0.0024876, "INCLINATION": 65.3174, "RA_OF_ASC_NODE": 79.6189, "ARG_OF_PERICENTER": 230.2075, "MEAN_ANOMALY": 129.6042, "EPHEMERIS_TYPE": 0, "CLASSIFICATION_TYPE": "U", "NORAD_CAT_ID": 39155, "ELEMENT_SET_NO": 999, "REV_AT_EPOCH": 9846, "BSTAR": 0, "MEAN_MOTION_DOT": -2e-07, "MEAN_MOTION_DDOT": 0}, "tle": {"line1": "1 39155U 13019A   25354.12239863 -.00000020  00000+0  00000+0 0  9991", "line2": "2 39155  65.3174  79.6189 0024876 230.2075 129.6042  2.13103220 98462"}}, "geometry": {"type": "Point", "coordinates": [-121.97811869997582, 38.69331652485081]}}, {"type": "Feature", "properties": {"norad_id": 39166, "name": "GPS BIIF-4  (PRN 27)", "group": "gnss", "lat": 28.543598522932122, "lon": -61.10740436792278, "alt_km": 19820.575434215683, "timestamp": "2025-12-21T05:44:51.829425+00:00", "meta": {"OBJECT_NAME": "GPS BIIF-4  (PRN 27)", "OBJECT_ID": "2013-023A", "EPOCH": "2025-12-19T04:43:12.887616", "MEAN_MOTION": 2.00564719, "ECCENTRICITY": 0.0138305, "INCLINATION": 54.6464, "RA_OF_ASC_NODE": 276.3057, "ARG_OF_PERICENTER": 48.6894, "MEAN_ANOMALY": 312.5202, "EPHEMERIS_TYPE": 0, "CLASSIFICATION_TYPE": "U", "NORAD_CAT_ID": 39166, "ELEMENT_SET_NO": 999, "REV_AT_EPOCH": 9227, "BSTAR": 0, "MEAN_MOTION_DOT": -2.9e-07, "MEAN_MOTION_DDOT": 0}, "tle": {"line1": "1 39166U 13023A   25353.19667694 -.00000029  00000+0  00000+0 0  9990", "line2": "2 39166  54.6464 276.3057 0138305  48.6894 312.5202  2.00564719 92274"}}, "geometry": {"type": "Point", "coordinates": [-61.10740436792278, 28.543598522932122]}}, {"type": "Feature", "properties": {"norad_id": 39199, "name": "IRNSS-1A", "group": "gnss", "lat": 8.907879774053118, "lon": -126.30983809971426, "alt_km": 35713.50931639534, "timestamp": "2025-12-21T05:44:51.829437+00:00", "meta": {"OBJECT_NAME": "IRNSS-1A", "OBJECT_ID": "2013-034A", "EPOCH": "2025-12-18T18:41:43.776960", "MEAN_MOTION": 1.00272479, "ECCENTRICITY": 0.0024472, "INCLINATION": 35.3183, "RA_OF_ASC_NODE": 66.4661, "ARG_OF_PERICENTER": 211.0525, "MEAN_ANOMALY": 145.3931, "EPHEMERIS_TYPE": 0, "CLASSIFICATION_TYPE": "U", "NORAD_CAT_ID": 39199, "ELEMENT_SET_NO": 999, "REV_AT_EPOCH": 4555, "BSTAR": 0, "MEAN_MOTION_DOT": 6.5e-07, "MEAN_MOTION_DDOT": 0}, "tle": {"line1": "1 39199U 13034A   25352.77897890  .00000065  00000+0  00000+0 0  9993", "line2": "2 39199  35.3183  66.4661 0024472 211.0525 145.3931  1.00272479 45557"}}, "geometry": {"type": "Point", "coordinates": [-126.30983809971426, 8.907879774053118]}}, {"type": "Feature", "properties": {"norad_id": 39533, "name": "GPS BIIF-5  (PRN 30)", "group": "gnss", "lat": 30.402801621086816, "lon": -177.8081699329485, "alt_km": 20389.28175724061, "timestamp": "2025-12-21T05:44:51.829449+00:00", "meta": {"OBJECT_NAME": "GPS BIIF-5  (PRN 30)", "OBJECT_ID": "2014-008A", "EPOCH": "2025-12-20T04:30:10.868256", "MEAN_MOTION": 2.00559606, "ECCENTRICITY": 0.00799985, "INCLINATION": 53.6333, "RA_OF_ASC_NODE": 156.6204, "ARG_OF_PERICENTER": 226.3975, "MEAN_ANOMALY": 132.9264, "EPHEMERIS_TYPE": 0, "CLASSIFICATION_TYPE": "U", "NORAD_CAT_ID": 39533, "ELEMENT_SET_NO": 999, "REV_AT_EPOCH": 8609, "BSTAR": 0, "MEAN_MOTION_DOT": 6.4e-07, "MEAN_MOTION_DDOT": 0}, "tle": {"line1": "1 39533U 14008A   25354.18762579  .00000064  00000+0  00000+0 0  9998", "line2": "2 39533  53.6333 156.6204 0079998 226.3975 132.9264  2.00559606 86091"}}, "geometry": {"type": "Point", "coordinates": [-177.8081699329485, 30.402801621086816]}}, {"type": "Feature", "properties": {"norad_id": 39617, "name": "ASTRA 5B (EGNOS/PRN 123)", "group": "gnss", "lat": -0.025442816772099745, "lon": -160.27001795917403, "alt_km": 35778.24796181205, "timestamp": "2025-12-21T05:44:51.829461+00:00", "meta": {"OBJECT_NAME": "ASTRA 5B (EGNOS/PRN 123)", "OBJECT_ID": "2014-011B", "EPOCH": "2025-12-19T19:52:38.507808", "MEAN_MOTION": 1.00270681, "ECCENTRICITY": 0.0003845, "INCLINATION": 0.0429, "RA_OF_ASC_NODE": 358.0682, "ARG_OF_PERICENTER": 262.2755, "MEAN_ANOMALY": 149.9909, "EPHEMERIS_TYPE": 0, "CLASSIFICATION_TYPE": "U", "NORAD_CAT_ID": 39617, "ELEMENT_SET_NO": 999, "REV_AT_EPOCH": 4286, "BSTAR": 0, "MEAN_MOTION_DOT": 1.61e-06, "MEAN_MOTION_DDOT": 0}, "tle": {"line1": "1 39617U 14011B   25353.82822347  .00000161  00000+0  00000+0 0  9993", "line2": "2 39617   0.0429 358.0682 0003845 262.2755 149.9909  1.00270681 42860"}}, "geometry": {"type": "Point", "coordinates": [-160.27001795917403, -0.025442816772099745]}}]}